ORBCOMM FM37            
1 33064U 08031E   24117.54693374  .00003684  00000+0  55455-3 0  9991
2 33064  48.4380 159.1770 0005727  24.5184 129.7150 14.76322150852416
ORBCOMM FM40            
1 33065U 08031F   24117.48987566  .00004351  00000+0  63040-3 0  9995
2 33065  48.4402 148.9544 0007018  34.6699 129.7156 14.77616720852444
VESSELSAT 1             
1 37840U 11058C   24117.28835407  .00000580  00000+0  17219-3 0  9994
2 37840  19.9611  96.1321 0013545 281.4363  78.4520 14.11144069647349
ORBCOMM FM109           
1 40086U 14040A   24117.30789577  .00002283  00000+0  54516-3 0  9996
2 40086  47.0010 182.7937 0002466 224.8261 135.2425 14.56544386520254
ORBCOMM FM107           
1 40087U 14040B   24117.54801064  .00002399  00000+0  57067-3 0  9991
2 40087  47.0028 182.6274 0001463 211.1082 148.9716 14.56552753520366
ORBCOMM FM106           
1 40088U 14040C   24117.50269693  .00003445  00000+0  64015-3 0  9998
2 40088  47.0616  37.0075 0018574 292.2759  67.6161 14.66950530522240
ORBCOMM FM111           
1 40089U 14040D   24116.66011959  .00004848  00000+0  63019-3 0  9996
2 40089  47.0034 303.8027 0032551 357.8735   2.2017 14.81623547528219
ORBCOMM FM104           
1 40090U 14040E   24117.36745840  .00001857  00000+0  46433-3 0  9997
2 40090  47.0035 212.2327 0016115 102.3067 257.9622 14.55079997519886
